ONEWEB-0668             
1 56711U 23068B   25140.70435449  .00000064  00000+0  13455-3 0  9997
2 56711  87.9028 306.9823 0002365  96.5439 263.5961 13.16595382100139
ONEWEB-0676             
1 56712U 23068C   25141.44451613  .00000158  00000+0  38014-3 0  9993
2 56712  87.9020 306.8636 0001469  81.8927 278.2370 13.16595389100859
ONEWEB-0677             
1 56713U 23068D   25141.52413033  .00000119  00000+0  26176-3 0  9990
2 56713  87.9261 352.4401 0002068  78.5100 281.6265 13.20773249 98806
ONEWEB-0678             
1 56714U 23068E   25141.54080328  .00000148  00000+0  35969-3 0  9992
2 56714  87.9054 337.2422 0001461  94.3281 265.8016 13.15549647 98493
ONEWEB-0679             
1 56715U 23068F   25141.18566670  .00000010  00000+0 -69828-5 0  9994
2 56715  87.9015 306.9083 0002160  82.4716 277.6660 13.16592990100844
ONEWEB-0680             
1 56716U 23068G   25140.91418417  .00000135  00000+0  29551-3 0  9994
2 56716  87.9223 322.2092 0002505  90.5469 269.5952 13.21824281 99977
ONEWEB-0681             
1 56717U 23068H   25141.53000826  .00000114  00000+0  24542-3 0  9997
2 56717  87.9244 322.1064 0001782  60.4375 299.6936 13.21827347100040
ONEWEB-0682             
1 56718U 23068J   25140.95848954 -.00000070  00000+0 -22112-3 0  9999
2 56718  87.9050 337.3897 0002321  85.2143 274.9252 13.15549747 98586
